IRIDIUM 155             
1 43573U 18061E   26026.27168919  .00000134  00000+0  40831-4 0  9994
2 43573  86.3979 116.0356 0002223  92.1370 268.0080 14.34216512393018
IRIDIUM 154             
1 43574U 18061F   26026.18289039  .00000604  00000+0  20854-3 0  9996
2 43574  86.3986 116.1993 0002002  94.9732 265.1692 14.34215745393050
IRIDIUM 163             
1 43575U 18061G   26026.16386515  .00000269  00000+0  88941-4 0  9991
2 43575  86.3982 116.1269 0002204  98.8267 261.3179 14.34216241393020
IRIDIUM 156             
1 43576U 18061H   26026.27803318  .00000236  00000+0  77203-4 0  9992
2 43576  86.3981 116.0865 0002211  90.1818 269.9631 14.34216690393032
IRIDIUM 164             
1 43577U 18061J   26026.32877266  .00000107  00000+0  31179-4 0  9991
2 43577  86.3984 116.1031 0001901  98.0616 262.0796 14.34217070393084
IRIDIUM 159             
1 43578U 18061K   26025.66913619  .00000293  00000+0  97709-4 0  9998
2 43578  86.3984 116.3189 0002148 100.2413 259.9026 14.34222424392951
IRIDIUM 180             
1 43922U 19002A   26026.15701381  .00000434  00000+0  14780-3 0  9997
2 43922  86.3929  52.9609 0002220  95.4481 264.6968 14.34222445368635
IRIDIUM 176             
1 43923U 19002B   26026.31037298  .00001431  00000+0  22293-3 0  9991
2 43923  86.6050  52.8606 0002634  90.2376 269.9143 14.72275801378376
IRIDIUM 168             
1 43924U 19002C   26026.15068163  .00000433  00000+0  14766-3 0  9996
2 43924  86.3931  53.0370 0002230  92.2199 267.9252 14.34218293368615
IRIDIUM 173             
1 43925U 19002D   26026.13799399  .00000185  00000+0  58927-4 0  9999
2 43925  86.3927  52.9368 0002368  91.6930 268.4537 14.34216786368598
IRIDIUM 169             
1 43926U 19002E   26026.14980177  .00000178  00000+0  51752-4 0  9998
2 43926  86.4195  84.5952 0003018  84.8977 275.2565 14.38607518369808
IRIDIUM 172             
1 43927U 19002F   26026.13165176  .00000138  00000+0  42108-4 0  9993
2 43927  86.3926  52.9467 0002164  97.4483 262.6959 14.34217776368606
IRIDIUM 175             
1 43928U 19002G   26026.30573409  .00001755  00000+0  27443-3 0  9995
2 43928  86.1525 352.7595 0001770  57.0618 303.0768 14.72242905378363
IRIDIUM 171             
1 43929U 19002H   26026.11262683  .00000352  00000+0  11877-3 0  9990
2 43929  86.3936  53.2458 0002149  86.1650 273.9792 14.34218223368593
IRIDIUM 170             
1 43930U 19002J   26026.11263775  .00001504  00000+0  23459-3 0  9994
2 43930  86.6051  52.9467 0002346  88.1239 272.0247 14.72262781378356
IRIDIUM 167             
1 43931U 19002K   26026.10627319  .00000443  00000+0  15101-3 0  9998
2 43931  86.3927  52.9788 0002293  81.6791 278.4664 14.34222534368592
IRIDIUM 181             
1 56726U 23068S   26026.32784744  .00000610  00000+0  17522-3 0  9996
2 56726  86.4521 116.1088 0001814 102.3758 257.7646 14.43310069141979
IRIDIUM 177             
1 56727U 23068T   26026.08879102  .00000919  00000+0  11740-3 0  9991
2 56727  86.1941  36.2559 0002399  88.1836 271.9659 14.80225874145342
IRIDIUM 174             
1 56728U 23068U   26026.30416456  .00000876  00000+0  13497-3 0  9999
2 56728  86.6053  52.9998 0002331  92.0708 268.0776 14.72268736145142
IRIDIUM 178             
1 56729U 23068V   26026.21308302  .00001902  00000+0  24685-3 0  9992
2 56729  86.6512  84.7143 0002212  83.4699 276.6775 14.80242400145366
IRIDIUM 179             
1 56730U 23068W   26026.20771597  .00001988  00000+0  25814-3 0  9992
2 56730  86.6760  93.2778 0002256  87.1062 273.0418 14.80239804145364
